KUIPER-00035            
1 63748U 25088AA  26020.22153380  .00010510  00000+0  14062-2 0  9996
2 63748  51.9023 328.4490 0004809 275.4266  84.6148 14.79906413 40338
KUIPER-00037            
1 63749U 25088AB  26020.29011869  .00005993  00000+0  81546-3 0  9990
2 63749  51.9020 327.0827 0000853  96.3496 263.7564 14.79879943 41144
KUIPER-00038            
1 63750U 25088AC  26020.23880468  .00004616  00000+0  63435-3 0  9993
2 63750  51.9029 312.3344 0004534 294.2196  65.8292 14.79916569 40348
KUIPER-00039            
1 64500U 25134A   26020.21137874  .00022545  00000+0  29752-2 0  9997
2 64500  51.9009  87.4568 0002462 169.0042 191.0974 14.79948120 32893
KUIPER-00040            
1 64501U 25134B   26020.19884063  .00009597  00000+0  12828-2 0  9992
2 64501  51.8997  98.6606 0016553 105.9379 254.3409 14.79964225 32737
KUIPER-00041            
1 64502U 25134C   26019.65765540  .00005155  00000+0  70422-3 0  9991
2 64502  51.8997 102.4076 0011874 107.2409 252.9854 14.79935036 32638
KUIPER-00042            
1 64503U 25134D   26020.20156742  .00009085  00000+0  12169-2 0  9992
2 64503  51.8995  96.0083 0011742 117.8097 242.4057 14.79977020 32770
KUIPER-00043            
1 64504U 25134E   26020.20972151  .00003365  00000+0  47054-3 0  9990
2 64504  51.9024  88.4276 0002580 142.7304 217.3838 14.79909748 32884
